ONEWEB-0020             
1 45133U 20008C   23309.80599600 -.00000541  00000+0 -15857-2 0  9999
2 45133  87.8925 225.7876 0001596  77.1632 282.9673 13.10375171183357
ONEWEB-0021             
1 45134U 20008D   23309.82062110  .00000137  00000+0  35674-3 0  9992
2 45134  87.8933 225.7899 0001691  66.0184 294.1120 13.10377967183668
ONEWEB-0022             
1 45135U 20008E   23309.84531558  .00000521  00000+0  14565-2 0  9994
2 45135  87.8928 225.8031 0001517  88.9386 271.1915 13.10383912183367
ONEWEB-0023             
1 45136U 20008F   23309.83362591  .00001026  00000+0  29026-2 0  9992
2 45136  87.8933 225.7801 0002371  85.2228 274.9170 13.10374291183096
ONEWEB-0024             
1 45137U 20008G   23309.80437842 -.00000622  00000+0 -18172-2 0  9995
2 45137  87.8919 225.7959 0001661  65.4554 294.6746 13.10376126183253
ONEWEB-0025             
1 45138U 20008H   23309.82226422  .00000193  00000+0  51725-3 0  9991
2 45138  87.8932 225.7915 0001965  66.7142 293.4192 13.10377809183582
ONEWEB-0026             
1 45139U 20008J   23310.14276207 -.00114278  00000+0 -32794+0 0  9998
2 45139  87.8972 210.6042 0002284  77.0037 283.1346 13.11108816186945
ONEWEB-0028             
1 45140U 20008K   23310.09822501  .00000581  00000+0  16028-2 0  9992
2 45140  87.9004 210.6584 0002383  64.0095 296.1278 13.11415171183574
